[{"OBJECT_NAME":"STARLINK-36393","OBJECT_ID":"2026-034K","EPOCH":"2026-03-09T20:25:53.814720","MEAN_MOTION":15.8100467,"ECCENTRICITY":6.194e-5,"INCLINATION":53.1586,"RA_OF_ASC_NODE":210.4671,"ARG_OF_PERICENTER":50.7737,"MEAN_ANOMALY":309.334,"EPHEMERIS_TYPE":0,"CLASSIFICATION_TYPE":"U","NORAD_CAT_ID":67859,"ELEMENT_SET_NO":999,"REV_AT_EPOCH":396,"BSTAR":0.0014803143,"MEAN_MOTION_DOT":0.0030383,"MEAN_MOTION_DDOT":0},{"OBJECT_NAME":"COSMOS 1602","OBJECT_ID":"1984-105A","EPOCH":"2026-03-09T22:48:46.831392","MEAN_MOTION":15.83356674,"ECCENTRICITY":0.00023642,"INCLINATION":82.5141,"RA_OF_ASC_NODE":36.2127,"ARG_OF_PERICENTER":125.565,"MEAN_ANOMALY":234.584,"EPHEMERIS_TYPE":0,"CLASSIFICATION_TYPE":"U","NORAD_CAT_ID":15331,"ELEMENT_SET_NO":999,"REV_AT_EPOCH":26658,"BSTAR":0.00071609066,"MEAN_MOTION_DOT":0.00157023,"MEAN_MOTION_DDOT":0}]
